[{"OBJECT_NAME":"TEIKYOSAT-4 (OORURI)","OBJECT_ID":"2021-102B","EPOCH":"2026-03-09T16:12:29.535840","MEAN_MOTION":15.09119208,"ECCENTRICITY":0.00103447,"INCLINATION":97.3797,"RA_OF_ASC_NODE":101.9931,"ARG_OF_PERICENTER":276.5421,"MEAN_ANOMALY":83.463,"EPHEMERIS_TYPE":0,"CLASSIFICATION_TYPE":"U","NORAD_CAT_ID":49396,"ELEMENT_SET_NO":999,"REV_AT_EPOCH":23771,"BSTAR":0.00015739844,"MEAN_MOTION_DOT":2.438e-5,"MEAN_MOTION_DDOT":0},{"OBJECT_NAME":"STARLINK-4788","OBJECT_ID":"2022-114AX","EPOCH":"2026-03-09T21:41:24.432864","MEAN_MOTION":15.08837561,"ECCENTRICITY":0.0001244,"INCLINATION":53.2171,"RA_OF_ASC_NODE":283.197,"ARG_OF_PERICENTER":79.4328,"MEAN_ANOMALY":280.6804,"EPHEMERIS_TYPE":0,"CLASSIFICATION_TYPE":"U","NORAD_CAT_ID":53863,"ELEMENT_SET_NO":999,"REV_AT_EPOCH":19314,"BSTAR":1.4129136e-5,"MEAN_MOTION_DOT":-6.3e-7,"MEAN_MOTION_DDOT":0}]
